[{"OBJECT_NAME":"STARLINK-5523","OBJECT_ID":"2023-064Y","EPOCH":"2026-03-09T13:01:56.648928","MEAN_MOTION":14.98324703,"ECCENTRICITY":0.0002926,"INCLINATION":70.0004,"RA_OF_ASC_NODE":124.9791,"ARG_OF_PERICENTER":262.4662,"MEAN_ANOMALY":97.6164,"EPHEMERIS_TYPE":0,"CLASSIFICATION_TYPE":"U","NORAD_CAT_ID":56470,"ELEMENT_SET_NO":999,"REV_AT_EPOCH":15571,"BSTAR":-4.776753e-5,"MEAN_MOTION_DOT":-6.63e-6,"MEAN_MOTION_DDOT":0},{"OBJECT_NAME":"SITRO-AIS 20","OBJECT_ID":"2024-199Z","EPOCH":"2026-03-09T22:53:15.769536","MEAN_MOTION":14.97385198,"ECCENTRICITY":0.00069441,"INCLINATION":97.3309,"RA_OF_ASC_NODE":274.6556,"ARG_OF_PERICENTER":50.5148,"MEAN_ANOMALY":309.6689,"EPHEMERIS_TYPE":0,"CLASSIFICATION_TYPE":"U","NORAD_CAT_ID":61758,"ELEMENT_SET_NO":999,"REV_AT_EPOCH":12028,"BSTAR":0.00032349417,"MEAN_MOTION_DOT":3.708e-5,"MEAN_MOTION_DDOT":0}]
